MTI                     
1 26102U 00014A   20045.90191197  .00003144  00000-0  48771-4 0  9997
2 26102  97.5227 281.8706 0007568 334.5796  25.5048 15.54817233105313
CFESAT                  
1 30777U 07006F   20045.36708542  .00001956  00000-0  55761-4 0  9992
2 30777  35.4262  27.0323 0004764 156.9940 203.1001 15.36108122717360
SPIRALE A               
1 33751U 09008C   20045.80439630  .00000063  00000-0  40450-3 0  9995
2 33751   2.0647 327.8187 5384510 103.9932 319.0645  4.58729266155603
SPIRALE B               
1 33752U 09008D   20043.74636171  .00001435  00000-0  35413-3 0  9993
2 33752   1.8840 215.5534 6916084 319.8057   5.4577  2.75223740101333
SAPPHIRE                
1 39088U 13009C   20046.13975666 -.00000027  00000-0  56933-5 0  9997
2 39088  98.4783 249.9546 0010341 294.2256  65.7848 14.34202510364820
